{
  "links" : {
    "next" : "https://api.nasa.gov/neo/rest/v1/feed?start_date=2004-02-16&end_date=2004-02-16&detailed=true&api_key=t0TVs3DtDT2H8Oy2Zy8m2eVrNsAVKAexjcZXUckd",
    "prev" : "https://api.nasa.gov/neo/rest/v1/feed?start_date=2004-02-14&end_date=2004-02-14&detailed=true&api_key=t0TVs3DtDT2H8Oy2Zy8m2eVrNsAVKAexjcZXUckd",
    "self" : "https://api.nasa.gov/neo/rest/v1/feed?start_date=2004-02-15&end_date=2004-02-15&detailed=true&api_key=t0TVs3DtDT2H8Oy2Zy8m2eVrNsAVKAexjcZXUckd"
  },
  "element_count" : 7,
  "near_earth_objects" : {
    "2004-02-15" : [ {
      "links" : {
        "self" : "https://api.nasa.gov/neo/rest/v1/neo/3172317?api_key=t0TVs3DtDT2H8Oy2Zy8m2eVrNsAVKAexjcZXUckd"
      },
      "neo_reference_id" : "3172317",
      "name" : "(2004 AE6)",
      "nasa_jpl_url" : "http://ssd.jpl.nasa.gov/sbdb.cgi?sstr=3172317",
      "absolute_magnitude_h" : 24.4,
      "estimated_diameter" : {
        "kilometers" : {
          "estimated_diameter_min" : 0.0350392641,
          "estimated_diameter_max" : 0.0783501764
        },
        "meters" : {
          "estimated_diameter_min" : 35.0392641108,
          "estimated_diameter_max" : 78.3501764334
        },
        "miles" : {
          "estimated_diameter_min" : 0.0217723826,
          "estimated_diameter_max" : 0.0486845275
        },
        "feet" : {
          "estimated_diameter_min" : 114.9582192654,
          "estimated_diameter_max" : 257.0543928497
        }
      },
      "is_potentially_hazardous_asteroid" : false,
      "close_approach_data" : [ {
        "close_approach_date" : "2004-02-15",
        "epoch_date_close_approach" : 1076832000000,
        "relative_velocity" : {
          "kilometers_per_second" : "8.0641096804",
          "kilometers_per_hour" : "29030.7948496119",
          "miles_per_hour" : "18038.6069441936"
        },
        "miss_distance" : {
          "astronomical" : "0.0595530691",
          "lunar" : "23.1661434174",
          "kilometers" : "8909012",
          "miles" : "5535803.5"
        },
        "orbiting_body" : "Earth"
      } ],
      "orbital_data" : {
        "orbit_id" : "11",
        "orbit_determination_date" : "2017-04-06 09:13:18",
        "orbit_uncertainty" : "8",
        "minimum_orbit_intersection" : ".0551852",
        "jupiter_tisserand_invariant" : "4.481",
        "epoch_osculation" : "2453023.5",
        "eccentricity" : ".3762602817218874",
        "semi_major_axis" : "1.488228178640464",
        "inclination" : "6.69139724306102",
        "ascending_node_longitude" : "298.1507077980451",
        "orbital_period" : "663.1361627722409",
        "perihelion_distance" : ".9282670248787518",
        "perihelion_argument" : "250.8727253772571",
        "aphelion_distance" : "2.048189332402177",
        "perihelion_time" : "2453086.986060559629",
        "mean_anomaly" : "325.5350091210209",
        "mean_motion" : ".5428749330982341",
        "equinox" : "J2000"
      }
    }, {
      "links" : {
        "self" : "https://api.nasa.gov/neo/rest/v1/neo/2163818?api_key=t0TVs3DtDT2H8Oy2Zy8m2eVrNsAVKAexjcZXUckd"
      },
      "neo_reference_id" : "2163818",
      "name" : "163818 (2003 RX7)",
      "nasa_jpl_url" : "http://ssd.jpl.nasa.gov/sbdb.cgi?sstr=2163818",
      "absolute_magnitude_h" : 18.4,
      "estimated_diameter" : {
        "kilometers" : {
          "estimated_diameter_min" : 0.5553349116,
          "estimated_diameter_max" : 1.2417666126
        },
        "meters" : {
          "estimated_diameter_min" : 555.334911581,
          "estimated_diameter_max" : 1241.766612574
        },
        "miles" : {
          "estimated_diameter_min" : 0.3450690093,
          "estimated_diameter_max" : 0.7715977618
        },
        "feet" : {
          "estimated_diameter_min" : 1821.9649913114,
          "estimated_diameter_max" : 4074.0375731972
        }
      },
      "is_potentially_hazardous_asteroid" : true,
      "close_approach_data" : [ {
        "close_approach_date" : "2004-02-15",
        "epoch_date_close_approach" : 1076832000000,
        "relative_velocity" : {
          "kilometers_per_second" : "8.4483436562",
          "kilometers_per_hour" : "30414.0371621707",
          "miles_per_hour" : "18898.099924461"
        },
        "miss_distance" : {
          "astronomical" : "0.2435441844",
          "lunar" : "94.7386932373",
          "kilometers" : "36433692",
          "miles" : "22638848"
        },
        "orbiting_body" : "Earth"
      } ],
      "orbital_data" : {
        "orbit_id" : "84",
        "orbit_determination_date" : "2017-04-06 09:26:10",
        "orbit_uncertainty" : "0",
        "minimum_orbit_intersection" : ".026241",
        "jupiter_tisserand_invariant" : "5.127",
        "epoch_osculation" : "2458000.5",
        "eccentricity" : ".3543832865094087",
        "semi_major_axis" : "1.229203336360471",
        "inclination" : "10.38987494598176",
        "ascending_node_longitude" : "241.0761612960961",
        "orbital_period" : "497.7760789915132",
        "perihelion_distance" : ".7935942182327171",
        "perihelion_argument" : "245.840401531975",
        "aphelion_distance" : "1.664812454488225",
        "perihelion_time" : "2458016.837125135150",
        "mean_anomaly" : "348.1847173922666",
        "mean_motion" : ".723216753865221",
        "equinox" : "J2000"
      }
    }, {
      "links" : {
        "self" : "https://api.nasa.gov/neo/rest/v1/neo/3174203?api_key=t0TVs3DtDT2H8Oy2Zy8m2eVrNsAVKAexjcZXUckd"
      },
      "neo_reference_id" : "3174203",
      "name" : "(2004 BG86)",
      "nasa_jpl_url" : "http://ssd.jpl.nasa.gov/sbdb.cgi?sstr=3174203",
      "absolute_magnitude_h" : 19.4,
      "estimated_diameter" : {
        "kilometers" : {
          "estimated_diameter_min" : 0.3503926411,
          "estimated_diameter_max" : 0.7835017643
        },
        "meters" : {
          "estimated_diameter_min" : 350.3926411083,
          "estimated_diameter_max" : 783.5017643338
        },
        "miles" : {
          "estimated_diameter_min" : 0.2177238258,
          "estimated_diameter_max" : 0.4868452748
        },
        "feet" : {
          "estimated_diameter_min" : 1149.5821926537,
          "estimated_diameter_max" : 2570.543928497
        }
      },
      "is_potentially_hazardous_asteroid" : false,
      "close_approach_data" : [ {
        "close_approach_date" : "2004-02-15",
        "epoch_date_close_approach" : 1076832000000,
        "relative_velocity" : {
          "kilometers_per_second" : "33.5990844672",
          "kilometers_per_hour" : "120956.7040817775",
          "miles_per_hour" : "75157.7920445911"
        },
        "miss_distance" : {
          "astronomical" : "0.3428099041",
          "lunar" : "133.3530578613",
          "kilometers" : "51283632",
          "miles" : "31866172"
        },
        "orbiting_body" : "Earth"
      } ],
      "orbital_data" : {
        "orbit_id" : "22",
        "orbit_determination_date" : "2017-04-06 09:13:13",
        "orbit_uncertainty" : "0",
        "minimum_orbit_intersection" : ".160617",
        "jupiter_tisserand_invariant" : "4.498",
        "epoch_osculation" : "2458000.5",
        "eccentricity" : ".6133003649551679",
        "semi_major_axis" : "1.352355674555401",
        "inclination" : "36.1623600984653",
        "ascending_node_longitude" : "146.6862728574567",
        "orbital_period" : "574.4269647985786",
        "perihelion_distance" : ".5229554458013811",
        "perihelion_argument" : "123.3766759774473",
        "aphelion_distance" : "2.18175590330942",
        "perihelion_time" : "2458273.090056384316",
        "mean_anomaly" : "189.164669641225",
        "mean_motion" : ".6267115265493031",
        "equinox" : "J2000"
      }
    } ]
  }
}